[{"OBJECT_NAME":"STARLINK-32582","OBJECT_ID":"2024-216B","EPOCH":"2026-03-05T15:06:01.863072","MEAN_MOTION":15.27555467,"ECCENTRICITY":0.00013741,"INCLINATION":42.9995,"RA_OF_ASC_NODE":286.2641,"ARG_OF_PERICENTER":269.493,"MEAN_ANOMALY":90.5764,"EPHEMERIS_TYPE":0,"CLASSIFICATION_TYPE":"U","NORAD_CAT_ID":62033,"ELEMENT_SET_NO":999,"REV_AT_EPOCH":7317,"BSTAR":0.00056890512,"MEAN_MOTION_DOT":0.00015414,"MEAN_MOTION_DDOT":0},{"OBJECT_NAME":"STARLINK-32615","OBJECT_ID":"2024-216C","EPOCH":"2026-03-05T15:09:16.911072","MEAN_MOTION":15.27586761,"ECCENTRICITY":0.00010552,"INCLINATION":42.9978,"RA_OF_ASC_NODE":279.3587,"ARG_OF_PERICENTER":267.7548,"MEAN_ANOMALY":92.3183,"EPHEMERIS_TYPE":0,"CLASSIFICATION_TYPE":"U","NORAD_CAT_ID":62034,"ELEMENT_SET_NO":999,"REV_AT_EPOCH":7209,"BSTAR":0.0007985001,"MEAN_MOTION_DOT":0.0002178,"MEAN_MOTION_DDOT":0},{"OBJECT_NAME":"STARLINK-32592","OBJECT_ID":"2024-216D","EPOCH":"2026-03-05T15:43:03.526752","MEAN_MOTION":15.27567996,"ECCENTRICITY":7.832e-5,"INCLINATION":42.9992,"RA_OF_ASC_NODE":286.4553,"ARG_OF_PERICENTER":294.5025,"MEAN_ANOMALY":65.5745,"EPHEMERIS_TYPE":0,"CLASSIFICATION_TYPE":"U","NORAD_CAT_ID":62035,"ELEMENT_SET_NO":999,"REV_AT_EPOCH":7318,"BSTAR":0.000926129,"MEAN_MOTION_DOT":0.00025301,"MEAN_MOTION_DDOT":0},{"OBJECT_NAME":"STARLINK-32225","OBJECT_ID":"2024-216E","EPOCH":"2026-03-05T15:14:49.964064","MEAN_MOTION":15.2759102,"ECCENTRICITY":0.00010487,"INCLINATION":42.9982,"RA_OF_ASC_NODE":279.387,"ARG_OF_PERICENTER":245.2693,"MEAN_ANOMALY":114.805,"EPHEMERIS_TYPE":0,"CLASSIFICATION_TYPE":"U","NORAD_CAT_ID":62036,"ELEMENT_SET_NO":999,"REV_AT_EPOCH":7332,"BSTAR":0.00094590097,"MEAN_MOTION_DOT":0.00025867,"MEAN_MOTION_DDOT":0},{"OBJECT_NAME":"STARLINK-32595","OBJECT_ID":"2024-216F","EPOCH":"2026-03-05T15:26:23.290368","MEAN_MOTION":15.27594664,"ECCENTRICITY":3.75e-5,"INCLINATION":42.9979,"RA_OF_ASC_NODE":286.3724,"ARG_OF_PERICENTER":334.2697,"MEAN_ANOMALY":25.8136,"EPHEMERIS_TYPE":0,"CLASSIFICATION_TYPE":"U","NORAD_CAT_ID":62037,"ELEMENT_SET_NO":999,"REV_AT_EPOCH":7318,"BSTAR":0.0011630827,"MEAN_MOTION_DOT":0.00031896,"MEAN_MOTION_DDOT":0},{"OBJECT_NAME":"STARLINK-32477","OBJECT_ID":"2024-216G","EPOCH":"2026-03-05T14:00:01.999872","MEAN_MOTION":15.38371359,"ECCENTRICITY":0.00130143,"INCLINATION":42.9963,"RA_OF_ASC_NODE":274.0221,"ARG_OF_PERICENTER":270.3805,"MEAN_ANOMALY":358.4552,"EPHEMERIS_TYPE":0,"CLASSIFICATION_TYPE":"U","NORAD_CAT_ID":62038,"ELEMENT_SET_NO":999,"REV_AT_EPOCH":585,"BSTAR":0.0041566828,"MEAN_MOTION_DOT":0.00164445,"MEAN_MOTION_DDOT":0},{"OBJECT_NAME":"STARLINK-32480","OBJECT_ID":"2024-216H","EPOCH":"2026-03-05T15:18:32.069088","MEAN_MOTION":15.27588917,"ECCENTRICITY":5.77e-5,"INCLINATION":42.9989,"RA_OF_ASC_NODE":279.4067,"ARG_OF_PERICENTER":280.6656,"MEAN_ANOMALY":79.4131,"EPHEMERIS_TYPE":0,"CLASSIFICATION_TYPE":"U","NORAD_CAT_ID":62039,"ELEMENT_SET_NO":999,"REV_AT_EPOCH":7209,"BSTAR":0.00084127585,"MEAN_MOTION_DOT":0.00022966,"MEAN_MOTION_DDOT":0},{"OBJECT_NAME":"STARLINK-32510","OBJECT_ID":"2024-216J","EPOCH":"2026-03-05T14:29:14.505504","MEAN_MOTION":15.27586518,"ECCENTRICITY":0.0001017,"INCLINATION":43.0001,"RA_OF_ASC_NODE":286.9273,"ARG_OF_PERICENTER":240.4714,"MEAN_ANOMALY":119.6036,"EPHEMERIS_TYPE":0,"CLASSIFICATION_TYPE":"U","NORAD_CAT_ID":62040,"ELEMENT_SET_NO":999,"REV_AT_EPOCH":7316,"BSTAR":0.0010216289,"MEAN_MOTION_DOT":0.00027963,"MEAN_MOTION_DDOT":0},{"OBJECT_NAME":"STARLINK-32456","OBJECT_ID":"2024-216K","EPOCH":"2026-03-05T15:24:05.002848","MEAN_MOTION":15.27597267,"ECCENTRICITY":1.627e-5,"INCLINATION":42.9974,"RA_OF_ASC_NODE":279.4351,"ARG_OF_PERICENTER":163.3318,"MEAN_ANOMALY":196.7539,"EPHEMERIS_TYPE":0,"CLASSIFICATION_TYPE":"U","NORAD_CAT_ID":62041,"ELEMENT_SET_NO":999,"REV_AT_EPOCH":7325,"BSTAR":0.00086623673,"MEAN_MOTION_DOT":0.00023664,"MEAN_MOTION_DDOT":0},{"OBJECT_NAME":"STARLINK-32509","OBJECT_ID":"2024-216L","EPOCH":"2026-03-05T00:52:36.249888","MEAN_MOTION":15.27605599,"ECCENTRICITY":0.00019727,"INCLINATION":43.0015,"RA_OF_ASC_NODE":282.634,"ARG_OF_PERICENTER":265.7245,"MEAN_ANOMALY":94.3381,"EPHEMERIS_TYPE":0,"CLASSIFICATION_TYPE":"U","NORAD_CAT_ID":62042,"ELEMENT_SET_NO":999,"REV_AT_EPOCH":7316,"BSTAR":0.00090517826,"MEAN_MOTION_DOT":0.0002475,"MEAN_MOTION_DDOT":0},{"OBJECT_NAME":"STARLINK-32491","OBJECT_ID":"2024-216M","EPOCH":"2026-03-05T15:57:49.784256","MEAN_MOTION":15.27592996,"ECCENTRICITY":0.00014292,"INCLINATION":43.0011,"RA_OF_ASC_NODE":286.5278,"ARG_OF_PERICENTER":234.9857,"MEAN_ANOMALY":125.0861,"EPHEMERIS_TYPE":0,"CLASSIFICATION_TYPE":"U","NORAD_CAT_ID":62043,"ELEMENT_SET_NO":999,"REV_AT_EPOCH":7317,"BSTAR":0.0012298224,"MEAN_MOTION_DOT":0.00033748,"MEAN_MOTION_DDOT":0},{"OBJECT_NAME":"STARLINK-32577","OBJECT_ID":"2024-216N","EPOCH":"2026-03-05T15:15:17.237952","MEAN_MOTION":15.27589186,"ECCENTRICITY":0.00013039,"INCLINATION":42.9992,"RA_OF_ASC_NODE":286.311,"ARG_OF_PERICENTER":273.4264,"MEAN_ANOMALY":86.6439,"EPHEMERIS_TYPE":0,"CLASSIFICATION_TYPE":"U","NORAD_CAT_ID":62044,"ELEMENT_SET_NO":999,"REV_AT_EPOCH":7318,"BSTAR":0.00091658202,"MEAN_MOTION_DOT":0.00025053,"MEAN_MOTION_DDOT":0},{"OBJECT_NAME":"STARLINK-32618","OBJECT_ID":"2024-216P","EPOCH":"2026-03-05T15:16:41.083104","MEAN_MOTION":15.27585066,"ECCENTRICITY":6.498e-5,"INCLINATION":43.0015,"RA_OF_ASC_NODE":279.3953,"ARG_OF_PERICENTER":276.1082,"MEAN_ANOMALY":83.9695,"EPHEMERIS_TYPE":0,"CLASSIFICATION_TYPE":"U","NORAD_CAT_ID":62045,"ELEMENT_SET_NO":999,"REV_AT_EPOCH":7325,"BSTAR":0.0009445251,"MEAN_MOTION_DOT":0.00025824,"MEAN_MOTION_DDOT":0},{"OBJECT_NAME":"STARLINK-32598","OBJECT_ID":"2024-216Q","EPOCH":"2026-03-05T14:04:31.540224","MEAN_MOTION":15.27574886,"ECCENTRICITY":0.00015716,"INCLINATION":43.0013,"RA_OF_ASC_NODE":279.0196,"ARG_OF_PERICENTER":241.3723,"MEAN_ANOMALY":118.6971,"EPHEMERIS_TYPE":0,"CLASSIFICATION_TYPE":"U","NORAD_CAT_ID":62046,"ELEMENT_SET_NO":999,"REV_AT_EPOCH":7325,"BSTAR":0.00066350099,"MEAN_MOTION_DOT":0.00018038,"MEAN_MOTION_DDOT":0},{"OBJECT_NAME":"STARLINK-32630","OBJECT_ID":"2024-216R","EPOCH":"2026-03-05T15:31:56.555040","MEAN_MOTION":15.27582892,"ECCENTRICITY":0.00010363,"INCLINATION":42.9997,"RA_OF_ASC_NODE":286.3955,"ARG_OF_PERICENTER":278.4495,"MEAN_ANOMALY":81.6239,"EPHEMERIS_TYPE":0,"CLASSIFICATION_TYPE":"U","NORAD_CAT_ID":62047,"ELEMENT_SET_NO":999,"REV_AT_EPOCH":7317,"BSTAR":0.00083965835,"MEAN_MOTION_DOT":0.00022917,"MEAN_MOTION_DDOT":0},{"OBJECT_NAME":"STARLINK-32599","OBJECT_ID":"2024-216S","EPOCH":"2026-03-05T14:03:19.591488","MEAN_MOTION":15.27605203,"ECCENTRICITY":3.256e-5,"INCLINATION":42.9931,"RA_OF_ASC_NODE":286.7932,"ARG_OF_PERICENTER":192.4786,"MEAN_ANOMALY":167.6058,"EPHEMERIS_TYPE":0,"CLASSIFICATION_TYPE":"U","NORAD_CAT_ID":62048,"ELEMENT_SET_NO":999,"REV_AT_EPOCH":7316,"BSTAR":0.00099911825,"MEAN_MOTION_DOT":0.00027355,"MEAN_MOTION_DDOT":0}]
