STARLINK-32582          
1 62033U 24216B   26064.62918823  .00015414  00000+0  56891-3 0  9992
2 62033  42.9995 286.2641 0001374 269.4930  90.5764 15.27555467 73177
STARLINK-32615          
1 62034U 24216C   26064.63144573  .00021780  00000+0  79850-3 0  9990
2 62034  42.9978 279.3587 0001055 267.7548  92.3183 15.27586761 72099
STARLINK-32592          
1 62035U 24216D   26064.65490193  .00025301  00000+0  92613-3 0  9990
2 62035  42.9992 286.4553 0000783 294.5025  65.5745 15.27567996 73189
STARLINK-32225          
1 62036U 24216E   26064.63530051  .00025867  00000+0  94590-3 0  9990
2 62036  42.9982 279.3870 0001048 245.2693 114.8050 15.27591020 73329
STARLINK-32595          
1 62037U 24216F   26064.64332512  .00031896  00000+0  11631-2 0  9997
2 62037  42.9979 286.3724 0000375 334.2697  25.8136 15.27594664 73184
STARLINK-32477          
1 62038U 24216G   26064.58335648  .00164445  00000+0  41567-2 0  9992
2 62038  42.9963 274.0221 0013014 270.3805 358.4552 15.38371359  5851
STARLINK-32480          
1 62039U 24216H   26064.63787117  .00022966  00000+0  84128-3 0  9993
2 62039  42.9989 279.4067 0000577 280.6656  79.4131 15.27588917 72096
STARLINK-32510          
1 62040U 24216J   26064.60364011  .00027963  00000+0  10216-2 0  9994
2 62040  43.0001 286.9273 0001017 240.4714 119.6036 15.27586518 73161
STARLINK-32456          
1 62041U 24216K   26064.64172457  .00023664  00000+0  86624-3 0  9991
2 62041  42.9974 279.4351 0000162 163.3318 196.7539 15.27597267 73253
STARLINK-32509          
1 62042U 24216L   26064.03653067  .00024750  00000+0  90518-3 0  9990
2 62042  43.0015 282.6340 0001972 265.7245  94.3381 15.27605599 73168
STARLINK-32491          
1 62043U 24216M   26064.66515954  .00033748  00000+0  12298-2 0  9997
2 62043  43.0011 286.5278 0001429 234.9857 125.0861 15.27592996 73174
STARLINK-32577          
1 62044U 24216N   26064.63561618  .00025053  00000+0  91658-3 0  9991
2 62044  42.9992 286.3110 0001303 273.4264  86.6439 15.27589186 73186
STARLINK-32618          
1 62045U 24216P   26064.63658661  .00025824  00000+0  94453-3 0  9999
2 62045  43.0015 279.3953 0000649 276.1082  83.9695 15.27585066 73257
STARLINK-32598          
1 62046U 24216Q   26064.58647616  .00018038  00000+0  66350-3 0  9996
2 62046  43.0013 279.0196 0001571 241.3723 118.6971 15.27574886 73254
STARLINK-32630          
1 62047U 24216R   26064.64718235  .00022917  00000+0  83966-3 0  9993
2 62047  42.9997 286.3955 0001036 278.4495  81.6239 15.27582892 73174
STARLINK-32599          
1 62048U 24216S   26064.58564342  .00027355  00000+0  99912-3 0  9994
2 62048  42.9931 286.7932 0000325 192.4786 167.6058 15.27605203 73165
